OBJECT_NAME,OBJECT_ID,EPOCH,MEAN_MOTION,ECCENTRICITY,INCLINATION,RA_OF_ASC_NODE,ARG_OF_PERICENTER,MEAN_ANOMALY,EPHEMERIS_TYPE,CLASSIFICATION_TYPE,NORAD_CAT_ID,ELEMENT_SET_NO,REV_AT_EPOCH,BSTAR,MEAN_MOTION_DOT,MEAN_MOTION_DDOT
PERSEUS-M1,2014-033AF,2026-05-13T09:06:01.692000,14.95509627,.00128449,97.9628,76.9475,57.4952,302.7508,0,U,40039,999,64543,.12396723E-3,.1314E-4,0
AEROCUBE 6A,2014-033AM,2026-05-14T00:31:04.911168,14.97717741,.00402766,97.7216,301.3503,128.3856,232.0995,0,U,40045,999,64150,.39345053E-3,.4629E-4,0
AEROCUBE 6B,2014-033AN,2026-05-13T23:45:43.121952,14.99137650,.00380364,97.7168,301.0403,121.9605,238.5325,0,U,40046,999,64163,.34478274E-3,.4195E-4,0
CANX-4,2014-034C,2026-05-14T02:32:04.964064,14.81198704,.00139401,98.3168,8.1615,117.8576,242.4050,0,U,40055,999,63948,.78859402E-4,.557E-5,0
CANX-5,2014-034D,2026-05-14T02:30:23.574528,14.81215717,.00139405,98.3170,8.2017,118.0670,242.1953,0,U,40056,999,63029,.78789866E-4,.557E-5,0
AEROCUBE 5C,2015-058B,2026-05-14T00:55:36.571008,14.91252921,.0129813,64.7689,8.8090,76.6948,284.8602,0,U,40965,999,36056,.19000251E-3,.2047E-4,0
AEROCUBE 7,2015-058C,2026-05-13T23:57:01.965888,14.95451715,.01196205,64.7634,351.8827,75.4140,286.0204,0,U,40966,999,36084,.25008525E-3,.3019E-4,0
FOX-1A (AO-85),2015-058D,2026-05-14T01:48:03.183840,14.90761337,.01290169,64.7769,24.9767,69.9651,291.5296,0,U,40967,999,10848,.20086089E-3,.2141E-4,0
SINOD-D 1,2015-058E,2026-05-13T23:31:09.120288,14.95629897,.01175138,64.7765,6.0138,66.7867,294.5572,0,U,40968,999,11154,.25286125E-3,.3055E-4,0
LMRST-SAT,2015-058H,2026-05-14T02:07:55.160832,14.90386860,.01308054,64.7775,21.2078,71.9932,289.5384,0,U,40971,999,10847,.20225032E-3,.2144E-4,0
PROPCUBE 3,2015-058K,2026-05-14T00:09:54.114912,14.94016737,.01229565,64.7699,359.3090,73.5277,287.9306,0,U,40973,999,10969,.22358876E-3,.2594E-4,0
BISONSAT,2015-058L,2026-05-13T19:00:31.046400,15.15476100,.00787142,64.7593,284.7776,62.0772,298.8293,0,U,40974,999,11040,.39045396E-3,.7824E-4,0
SNAP-3 JIMI,2015-058M,2026-05-12T23:16:42.727008,15.01929999,.01049345,64.7659,331.1663,69.9706,291.2672,0,U,40975,999,10893,.29162938E-3,.4121E-4,0
SINOD-D 3,2015-058P,2026-05-14T00:47:02.938560,14.93745368,.0118094,64.7741,22.4511,71.7793,289.6132,0,U,40977,999,10965,.24763329E-3,.2838E-4,0
HORYU-4,2016-012D,2026-05-13T16:32:51.459936,15.78201025,.00053359,30.9895,328.5167,30.7718,329.3251,0,U,41340,999,56533,.72994622E-3,.13275E-2,0
CELTEE 1,2016-067C,2026-05-14T02:17:30.124320,15.19332088,.00017268,98.0721,358.3397,58.8196,301.3206,0,U,41850,999,52070,.18077728E-3,.3741E-4,0
OPTICUBE 04,2016-067D,2026-05-14T03:23:27.077568,15.09509028,.00145034,98.0735,344.6463,229.5798,130.4165,0,U,41851,999,52003,.9705118E-4,.1487E-4,0
AEROCUBE 8D,2016-067E,2026-05-13T08:38:00.716928,15.23894158,.00019706,98.0733,0.8881,244.2585,115.8447,0,U,41852,999,52076,.18604888E-3,.441E-4,0
AEROCUBE 8C,2016-067F,2026-05-14T02:41:54.802176,15.24139696,.00056375,98.0603,358.9701,163.0497,197.0928,0,U,41853,999,52087,.2124108E-3,.5086E-4,0
CORVUS BC2,2017-042X,2026-05-14T04:19:09.022656,15.06071686,.0011968,97.4037,296.8650,222.6707,137.3592,0,U,42846,999,48194,.15573072E-3,.2218E-4,0
CORVUS BC1,2017-042Y,2026-05-14T01:05:37.545216,15.06242665,.0011402,97.4069,297.5276,197.1907,162.8936,0,U,42847,999,48195,.14559509E-3,.2079E-4,0
MAKERSAT 0,2017-073D,2026-05-13T14:43:18.147072,15.30593809,.01115762,97.4683,15.8945,36.9242,323.9613,0,U,43016,999,46117,.4817483E-3,.17217E-3,0
